{"type": "FeatureCollection", "features": [ {"type": "Feature", "properties": {"norad_id": 17070, "name": "POLAR BEAR", "group": "nnss", "lat": 70.3530025674881, "lon": -175.56152552314185, "alt_km": 945.3924077120973, "timestamp": "2025-12-22T22:44:21.244095+00:00", "meta": {"OBJECT_NAME": "POLAR BEAR", "OBJECT_ID": "1986-088A", "EPOCH": "2025-12-22T12:13:24.155040", "MEAN_MOTION": 13.75252822, "ECCENTRICITY": 0.00412914, "INCLINATION": 89.617, "RA_OF_ASC_NODE": 183.3826, "ARG_OF_PERICENTER": 91.1459, "MEAN_ANOMALY": 331.4308, "EPHEMERIS_TYPE": 0, "CLASSIFICATION_TYPE": "U", "NORAD_CAT_ID": 17070, "ELEMENT_SET_NO": 999, "REV_AT_EPOCH": 96113, "BSTAR": 9.9389854e-05, "MEAN_MOTION_DOT": 1.07e-06, "MEAN_MOTION_DDOT": 0}, "tle": {"line1": "1 17070U 86088A   25356.50930735  .00000107  00000+0  99390-4 0  9999", "line2": "2 17070  89.6170 183.3826 0041291  91.1459 331.4308 13.75252822961134"}}, "geometry": {"type": "Point", "coordinates": [-175.56152552314185, 70.3530025674881]}}, {"type": "Feature", "properties": {"norad_id": 18361, "name": "OSCAR 27", "group": "nnss", "lat": -64.41569049026823, "lon": 80.43529433632897, "alt_km": 1112.6806382171771, "timestamp": "2025-12-22T22:44:21.244105+00:00", "meta": {"OBJECT_NAME": "OSCAR 27", "OBJECT_ID": "1987-080A", "EPOCH": "2025-12-22T03:25:18.934464", "MEAN_MOTION": 13.44908544, "ECCENTRICITY": 0.01036926, "INCLINATION": 90.3738, "RA_OF_ASC_NODE": 79.624, "ARG_OF_PERICENTER": 196.6975, "MEAN_ANOMALY": 163.075, "EPHEMERIS_TYPE": 0, "CLASSIFICATION_TYPE": "U", "NORAD_CAT_ID": 18361, "ELEMENT_SET_NO": 999, "REV_AT_EPOCH": 87683, "BSTAR": 0.00017610414, "MEAN_MOTION_DOT": 1.15e-06, "MEAN_MOTION_DDOT": 0}, "tle": {"line1": "1 18361U 87080A   25356.14258026  .00000115  00000+0  17610-3 0  9995", "line2": "2 18361  90.3738  79.6240 0103692 196.6975 163.0750 13.44908544876839"}}, "geometry": {"type": "Point", "coordinates": [80.43529433632897, -64.41569049026823]}}, {"type": "Feature", "properties": {"norad_id": 18362, "name": "OSCAR 29", "group": "nnss", "lat": -69.05528493059354, "lon": 81.09381681603647, "alt_km": 1077.0123221747162, "timestamp": "2025-12-22T22:44:21.244116+00:00", "meta": {"OBJECT_NAME": "OSCAR 29", "OBJECT_ID": "1987-080B", "EPOCH": "2025-12-22T05:21:48.494016", "MEAN_MOTION": 13.44450163, "ECCENTRICITY": 0.01045285, "INCLINATION": 90.3749, "RA_OF_ASC_NODE": 80.0866, "ARG_OF_PERICENTER": 219.69, "MEAN_ANOMALY": 168.0965, "EPHEMERIS_TYPE": 0, "CLASSIFICATION_TYPE": "U", "NORAD_CAT_ID": 18362, "ELEMENT_SET_NO": 999, "REV_AT_EPOCH": 87637, "BSTAR": 0.00018133307, "MEAN_MOTION_DOT": 1.17e-06, "MEAN_MOTION_DDOT": 0}, "tle": {"line1": "1 18362U 87080B   25356.22347794  .00000117  00000+0  18133-3 0  9999", "line2": "2 18362  90.3749  80.0866 0104528 219.6900 168.0965 13.44450163876376"}}, "geometry": {"type": "Point", "coordinates": [81.09381681603647, -69.05528493059354]}}, {"type": "Feature", "properties": {"norad_id": 19070, "name": "OSCAR 23", "group": "nnss", "lat": 5.286304802660464, "lon": -163.26159327003901, "alt_km": 1024.9185332428742, "timestamp": "2025-12-22T22:44:21.244129+00:00", "meta": {"OBJECT_NAME": "OSCAR 23", "OBJECT_ID": "1988-033A", "EPOCH": "2025-12-22T13:40:27.772032", "MEAN_MOTION": 13.27788733, "ECCENTRICITY": 0.01903201, "INCLINATION": 90.3204, "RA_OF_ASC_NODE": 16.697, "ARG_OF_PERICENTER": 152.6434, "MEAN_ANOMALY": 16.7349, "EPHEMERIS_TYPE": 0, "CLASSIFICATION_TYPE": "U", "NORAD_CAT_ID": 19070, "ELEMENT_SET_NO": 999, "REV_AT_EPOCH": 82383, "BSTAR": 0.0001389273, "MEAN_MOTION_DOT": 7.9e-07, "MEAN_MOTION_DDOT": 0}, "tle": {"line1": "1 19070U 88033A   25356.56976588  .00000079  00000+0  13893-3 0  9996", "line2": "2 19070  90.3204  16.6970 0190320 152.6434  16.7349 13.27788733823839"}}, "geometry": {"type": "Point", "coordinates": [-163.26159327003901, 5.286304802660464]}}, {"type": "Feature", "properties": {"norad_id": 19071, "name": "OSCAR 32", "group": "nnss", "lat": -68.84110058910093, "lon": 17.67055006374185, "alt_km": 1287.8419399514496, "timestamp": "2025-12-22T22:44:21.244143+00:00", "meta": {"OBJECT_NAME": "OSCAR 32", "OBJECT_ID": "1988-033B", "EPOCH": "2025-12-22T13:01:57.455904", "MEAN_MOTION": 13.27955525, "ECCENTRICITY": 0.01890722, "INCLINATION": 90.3208, "RA_OF_ASC_NODE": 16.8286, "ARG_OF_PERICENTER": 139.6372, "MEAN_ANOMALY": 18.1912, "EPHEMERIS_TYPE": 0, "CLASSIFICATION_TYPE": "U", "NORAD_CAT_ID": 19071, "ELEMENT_SET_NO": 999, "REV_AT_EPOCH": 82395, "BSTAR": 0.00016166528, "MEAN_MOTION_DOT": 9e-07, "MEAN_MOTION_DDOT": 0}, "tle": {"line1": "1 19071U 88033B   25356.54302611  .00000090  00000+0  16167-3 0  9995", "line2": "2 19071  90.3208  16.8286 0189072 139.6372  18.1912 13.27955525823954"}}, "geometry": {"type": "Point", "coordinates": [17.67055006374185, -68.84110058910093]}}, {"type": "Feature", "properties": {"norad_id": 19223, "name": "NOVA 2", "group": "nnss", "lat": -57.03783899723066, "lon": 78.23921623366047, "alt_km": 1164.9296101767368, "timestamp": "2025-12-22T22:44:21.244158+00:00", "meta": {"OBJECT_NAME": "NOVA 2", "OBJECT_ID": "1988-052A", "EPOCH": "2025-12-22T12:11:28.775616", "MEAN_MOTION": 13.22936917, "ECCENTRICITY": 0.00297521, "INCLINATION": 89.9867, "RA_OF_ASC_NODE": 78.2603, "ARG_OF_PERICENTER": 349.9123, "MEAN_ANOMALY": 21.4395, "EPHEMERIS_TYPE": 0, "CLASSIFICATION_TYPE": "U", "NORAD_CAT_ID": 19223, "ELEMENT_SET_NO": 999, "REV_AT_EPOCH": 81077, "BSTAR": 0.00019085465, "MEAN_MOTION_DOT": 8.9e-07, "MEAN_MOTION_DDOT": 0}, "tle": {"line1": "1 19223U 88052A   25356.50797194  .00000089  00000+0  19085-3 0  9995", "line2": "2 19223  89.9867  78.2603 0029752 349.9123  21.4395 13.22936917810778"}}, "geometry": {"type": "Point", "coordinates": [78.23921623366047, -57.03783899723066]}}, {"type": "Feature", "properties": {"norad_id": 19419, "name": "OSCAR 25", "group": "nnss", "lat": 22.128014967404685, "lon": 20.26366460517105, "alt_km": 1168.1035641478256, "timestamp": "2025-12-22T22:44:21.244169+00:00", "meta": {"OBJECT_NAME": "OSCAR 25", "OBJECT_ID": "1988-074A", "EPOCH": "2025-12-22T14:19:29.148960", "MEAN_MOTION": 13.4262514, "ECCENTRICITY": 0.00950124, "INCLINATION": 90.0337, "RA_OF_ASC_NODE": 20.2762, "ARG_OF_PERICENTER": 217.3285, "MEAN_ANOMALY": 271.0129, "EPHEMERIS_TYPE": 0, "CLASSIFICATION_TYPE": "U", "NORAD_CAT_ID": 19419, "ELEMENT_SET_NO": 999, "REV_AT_EPOCH": 82772, "BSTAR": 0.00013277742, "MEAN_MOTION_DOT": 8.6e-07, "MEAN_MOTION_DDOT": 0}, "tle": {"line1": "1 19419U 88074A   25356.59686515  .00000086  00000+0  13278-3 0  9994", "line2": "2 19419  90.0337  20.2762 0095012 217.3285 271.0129 13.42625140827728"}}, "geometry": {"type": "Point", "coordinates": [20.26366460517105, 22.128014967404685]}}, {"type": "Feature", "properties": {"norad_id": 19420, "name": "OSCAR 31", "group": "nnss", "lat": -85.19001101454101, "lon": -159.79079166910134, "alt_km": 1066.3665261195601, "timestamp": "2025-12-22T22:44:21.244180+00:00", "meta": {"OBJECT_NAME": "OSCAR 31", "OBJECT_ID": "1988-074B", "EPOCH": "2025-12-22T03:53:19.034304", "MEAN_MOTION": 13.42586261, "ECCENTRICITY": 0.00933578, "INCLINATION": 90.0353, "RA_OF_ASC_NODE": 20.6262, "ARG_OF_PERICENTER": 212.7151, "MEAN_ANOMALY": 217.5501, "EPHEMERIS_TYPE": 0, "CLASSIFICATION_TYPE": "U", "NORAD_CAT_ID": 19420, "ELEMENT_SET_NO": 999, "REV_AT_EPOCH": 82777, "BSTAR": 0.00014692008, "MEAN_MOTION_DOT": 9.4e-07, "MEAN_MOTION_DDOT": 0}, "tle": {"line1": "1 19420U 88074B   25356.16202586  .00000094  00000+0  14692-3 0  9991", "line2": "2 19420  90.0353  20.6262 0093357 212.7151 217.5501 13.42586261827772"}}, "geometry": {"type": "Point", "coordinates": [-159.79079166910134, -85.19001101454101]}}]}